#dP2021  6  8  0  0  0.00000000      96 __u+U ITR00 FIT  IAC
## 2161 172800.00000000   900.00000000 59373 0.0000000000000
+  116   C06C07C08C09C10C11C12C13C14C16C19C20C21C22C23C24C25
+        C26C27C28C29C30C32C33C34C35C36C37C38C39C40C41C42C43
+        C44C45C46E01E02E03E04E05E07E08E09E11E12E13E14E15E18
+        E19E21E24E25E26E27E30E31E33E36G01G02G03G04G05G06G07
+        G08G09G10G12G13G14G15G16G17G18G19G20G21G22G23G24G25
+        G26G27G28G29G30G31G32J01J02J03R01R02R03R04R05R07R08
+        R09R11R12R13R14R15R16R17R18R19R20R21R22R24  0  0  0
++         6  8 10  8  0  8  7 11  7  6  7  5  6  7  8  6  6
++         5  7  7  6  7  8  7  7  7  6  7  7  8 10  7  7  7
++         6  7  7  7  7  7  7  7  6  4  7  6  5  6  6  5  6
++         7  7  6  7  6  6  6  7  6  6  6  6  6  7  6  6  6
++         5  7  6  6  6  7  6  5  6  7  4  7  7  6  6  6  6
++         7  6  6  6  5  6  6  7  9  7  6  5  7  6  6  6  7
++         8  6  6  6  6  5  6  6  6  6  9  7  8  6  0  0  0
%c M  cc GPS ccc cccc cccc cccc cccc ccccc ccccc ccccc ccccc
%c cc cc ccc ccc cccc cccc cccc cccc ccccc ccccc ccccc ccccc
%f  0.0000000  0.000000000  0.00000000000  0.000000000000000
%f  0.0000000  0.000000000  0.00000000000  0.000000000000000
%i    0    0    0    0      0      0      0      0         0
%i    0    0    0    0      0      0      0      0         0
/* INFORMATION & ANALYSIS CENTER (IAC)      ULTRA-RAPID DATA
/* S/V CLOCKS ARE ALIGNED TO GNSS TIME                      
/* G:C1WC2W R:C1PC2P E:C1XC5X C:C2IC6I J:C1CC2S             
/* PCV:IGS14_2148 OL/AL:FES2004  NONE     YN ORB:CoN CLK:CoN
*  2021 06 08  9 30  0.00000000
PC06 -24954.815600  31972.496368 -11942.590076    478.287249
PC07  -9517.252597  34020.636514 -22375.818040     96.005044
PC08 -12347.208565  18026.168763  36134.048915   -893.112370
PC09 -12402.450360  31746.494005 -24795.049962    463.957539
PC10      0.000000      0.000000      0.000000 999999.999999
PC11  19368.317061 -18669.403324  -7444.013223    387.505359
PC12  24562.389062  -8624.875883  10105.593309    852.066637
PC13   1015.580806  23621.536373  35039.876311    291.910875
PC14   8975.115638 -21331.506163 -15609.282901    923.613633
PC16 -22236.854861  32638.801938 -14940.779052   -885.849043
PC19  -2831.660710  26703.764145   7577.420428    864.701979
PC20 -12904.950060  13993.019996  20413.682295   -884.545646
PC21  15747.448428   7739.136440 -21670.866997   -936.343774
PC22   9187.119217  24308.516062 -10116.796769   -951.193514
PC23 -16674.575453 -18234.911848  12981.143908   -929.225114
PC24  20525.304004  -4726.083059  18312.178472   -883.943044
PC25   1581.702157 -16704.464399  22292.880674   -904.285069
PC26  26302.898778   8193.682922   4547.572951    895.700233
PC27 -21994.368703    491.608927 -17201.361157    544.869729
PC28  -7379.771850 -14116.246458 -22915.029894    -64.827254
PC29 -10720.958493  20834.234972  15148.565156    403.247159
PC30 -23255.359868  15327.292947  -1933.579743    469.929297
PC32 -15838.141189  -7663.380220  21683.222106   -926.410335
PC33   2701.326566 -26730.014791  -7580.776563   -936.602829
PC34  23020.785607 -15706.290474   1169.774968   -655.193559
PC35   7527.135310  14152.630348  22834.364078   -243.141508
PC36  -2350.316218  16515.575351 -22343.216373   -727.103636
PC37 -26001.438217  -9414.823621  -3673.239386   -878.484548
PC38  -9438.525453  21665.990215  34917.119433    153.924947
PC39 -18461.763235  34194.972334 -16523.232678     31.647711
PC40  -3745.470226  38832.003959 -15779.985952    168.919485
PC41  -9160.383955 -24453.465006   9895.580151   -946.455083
PC42  13186.019439 -13301.651237 -20645.895112   -913.445646
PC43  11221.908355 -20865.140204 -14739.535062   -766.847343
PC44  21895.452874   -975.597601  17241.699302    228.833738
PC45  16866.019340  18107.702974 -12907.755529    461.624859
PC46 -19714.652451   5471.844782 -18955.138854    234.006172
PE01  12361.530342 -11027.906766  24531.695475  -1124.816389
PE02 -12259.067693  11155.211436 -24525.546760    224.650486
PE03 -17218.313578  21502.932993  10816.549714   -439.671051
PE04   5941.992828 -28037.399110   7421.264286   -787.968831
PE05 -18547.830686   2243.544889  22966.607443   -274.612924
PE07   9051.333950  18095.426395 -21588.657316   -547.356240
PE08  -5616.645609  28004.586682  -7732.626319   5989.345340
PE09  -9136.754346 -17876.607817  21767.148679   5640.734425
PE11 -17823.402380 -11257.674289 -20799.461224   5877.862223
PE12   4576.839779 -16541.005185 -24119.047532   5170.616289
PE13  17422.877523  11339.954673  21066.854235    417.468926
PE14  16021.682614 -24626.973615  -2343.748785  -1458.878705
PE15  -4521.476386  16481.822623  24169.556220    809.952197
PE18 -21316.205927  14858.479365  -9388.866349  -1597.680404
PE19  17896.746988 -19829.437833 -12743.195408    297.013668
PE21  21688.876332   7719.118652  18603.897584   -669.480897
PE24 -18325.492966 -23217.677760   -868.507273   -943.465180
PE25 -21728.951210  -7922.399373 -18467.901757   -536.288189
PE26  29207.448372   -847.772935   4728.232671   1717.589073
PE27  18842.186857  22770.135992   1676.452187    -49.751278
PE30   3941.549264  24049.394264 -16815.019879   2880.524863
PE31  -4929.575845 -24331.053061  16130.253058   -481.991822
PE33  23747.514057 -11910.894496 -13042.730164   -469.460883
PE36 -29074.274148    467.535343  -5567.619847   -218.074423
PG01 -13764.724213 -13413.834445 -18747.616633    664.956138
PG02 -11881.753363  13999.169017  19864.585789   -610.733256
PG03 -12539.438004 -23460.235648    974.478016   -186.133838
PG04  -5261.286062 -16738.655422  19931.762754   -199.198367
PG05   3134.938796  23300.491329  12026.001025    -44.326472
PG06 -22275.532311   7123.930279  12705.372883     24.447236
PG07 -24547.489903  -7453.286039   8168.157114    172.735292
PG08   2714.241667 -22296.000182 -13942.546326    -24.280460
PG09 -14166.453220  -6231.114609  21529.398873   -350.027819
PG10  16205.786347    152.092083 -20977.194510   -138.133041
PG12   9820.777516  24756.711971   -668.250841    -52.101683
PG13 -11694.373359  22307.261650  -8339.819081    142.192823
PG14 -16381.318070   -520.639584 -20916.687670     73.010591
PG15    542.823428  22527.967799 -14143.175072   -143.845846
PG16   3181.629854 -20847.085171  15614.186479   -337.948242
PG17 -19429.009280   8819.119684 -15391.262291    455.146769
PG18  25657.844384   5246.251945   4634.993491    347.666414
PG19 -20029.692427  15103.712516  -8814.195963     10.612733
PG20   5981.060387  23270.002634  11567.662634    521.373334
PG21  -6031.302101 -14524.787686 -20770.166105    123.628509
PG22  -8019.721341 -23987.041509  -8250.123245   -593.846693
PG23  18327.546758  11513.080384 -15449.989703     99.072602
PG24   8953.178650  14938.494742 -20395.774359    121.920292
PG25  16853.500871  18044.940841   9869.743839    152.047476
PG26   9764.393147 -13338.375202  20679.226799     95.702030
PG27  11557.874631 -23277.483381  -4598.293141   -143.676492
PG28 -13442.994945   5968.180666 -21572.806491    558.133582
PG29  12669.060686   7572.590394  22032.497625   -360.642675
PG30 -26226.153136   1292.109072  -4708.534007   -436.366167
PG31  20638.919776  -8616.047987  14588.661602   -121.872114
PG32  19214.529338 -11618.060442 -13937.326273     19.178752
PJ01 -29033.981149  25282.603695  22131.437971   -392.106337
PJ02 -21721.703414  18853.351823 -26296.292507     -0.170194
PJ03 -29095.121765  30422.596452   8686.812384     -7.511574
PR01  10832.026622   3034.090491 -22886.281825     80.574474
PR02   9181.874377 -18160.567577 -15296.390684    481.614008
PR03   1953.102594 -25381.396052   1192.605990     37.329156
PR04  -6078.729740 -18216.906871  16818.641513     90.364658
PR05 -10794.817582   -938.128839  23107.914170     73.189559
PR07  -1732.453716  25410.944852  -1717.348045    -42.384052
PR08   6154.457479  18217.842718 -16710.145687    -59.410134
PR09 -10854.918155   5827.568758 -22327.530628     -3.126657
PR11  18779.918494  16276.029426  -5706.918699    -10.258693
PR12  20998.858404   7746.002067  12278.430090    235.465620
PR13  11218.488807  -5166.092333  22303.695297    -55.951886
PR14  -5793.469262 -15560.329227  19384.386206     65.122261
PR15 -18768.853178 -16474.257352   5228.713772    103.376942
PR16 -20850.869944  -6382.065112 -13149.287277    -16.092471
PR17   7647.870171 -13497.296948 -20258.494448    430.861656
PR18  -9615.175757  -6861.612511 -22607.803225     79.318523
PR19 -21431.710138   2240.483470 -13655.072289   -146.918882
PR20 -21845.002481  11787.780221   5973.601686    -50.516139
PR21  -6445.635250  13130.159853  20884.045293   -214.979160
PR22  10413.964501   6366.503664  22360.576748   -116.642393
PR24  21261.946035 -12455.252644  -6606.452961     45.716480
EOF
